H1 CPF 01  gfz 2022 12 25 01  8591 tandemx   
H2 1003001  6202 36605    2022 12 25 00 59 42 2022 12 30 00 00 42   120 1 1  0 0 0
H9
10 0 59940  62622.000000  0   -6499555.386   -797856.472  -2149187.148
10 0 59940  62742.000000  0   -6184898.598   -579487.449  -2987001.431
10 0 59940  62862.000000  0   -5758602.253   -357501.102  -3772390.016
10 0 59940  62982.000000  0   -5228190.243   -137661.287  -4491638.091
10 0 59940  63102.000000  0   -4603083.753     74461.979  -5132221.583
10 0 59940  63222.000000  0   -3894421.930    273621.375  -5683019.343
10 0 59940  63342.000000  0   -3114852.252    455010.573  -6134496.833
10 0 59940  63462.000000  0   -2278297.776    614369.939  -6478858.562
10 0 59940  63582.000000  0   -1399706.557    748077.626  -6710171.294
10 0 59940  63702.000000  0    -494785.268    853225.190  -6824455.909
10 0 59940  63822.000000  0     420276.299    927676.485  -6819746.787
10 0 59940  63942.000000  0    1329086.356    970108.318  -6696123.021
10 0 59940  64062.000000  0    2215338.772    980033.488  -6455709.421
10 0 59940  64182.000000  0    3063099.962    957805.605  -6102643.716
10 0 59940  64302.000000  0    3857091.199    904605.344  -5643011.861
10 0 59940  64422.000000  0    4582961.637    822407.832  -5084753.516
10 0 59940  64542.000000  0    5227550.377    713932.364  -4437536.941
10 0 59940  64662.000000  0    5779131.882    582575.066  -3712602.114
10 0 59940  64782.000000  0    6227638.330    432324.920  -2922574.465
10 0 59940  64902.000000  0    6564855.198    267665.478  -2081251.950
10 0 59940  65022.000000  0    6784585.660     93463.588  -1203366.341
10 0 59940  65142.000000  0    6882775.951    -85152.035   -304322.924
10 0 59940  65262.000000  0    6857599.650   -262919.019    600074.133
10 0 59940  65382.000000  0    6709498.960   -434574.272   1493906.896
10 0 59940  65502.000000  0    6441179.993   -594987.505   2361432.667
10 0 59940  65622.000000  0    6057561.747   -739291.902   3187371.174
10 0 59940  65742.000000  0    5565679.236   -863008.462   3957180.675
10 0 59940  65862.000000  0    4974547.466   -962160.765   4657318.492
10 0 59940  65982.000000  0    4294986.113  -1033378.494   5275482.116
10 0 59940  66102.000000  0    3539410.866  -1073984.747   5800824.075
10 0 59940  66222.000000  0    2721597.629  -1082067.176   6224138.686
10 0 59940  66342.000000  0    1856424.340  -1056531.705   6538017.769
10 0 59940  66462.000000  0     959595.895   -997137.639   6736975.340
10 0 59940  66582.000000  0      47355.284   -904512.853   6817537.929
10 0 59940  66702.000000  0    -863811.204   -780149.222   6778300.057
10 0 59940  66822.000000  0   -1757470.676   -626378.852   6619946.488
10 0 59940  66942.000000  0   -2617538.487   -446330.594   6345240.817
10 0 59940  67062.000000  0   -3428566.937   -243867.969   5958981.233
10 0 59940  67182.000000  0   -4176024.948    -23509.360   5467922.852
10 0 59940  67302.000000  0   -4846563.611    209668.232   4880665.784
10 0 59940  67422.000000  0   -5428261.764    450139.795   4207509.835
10 0 59940  67542.000000  0   -5910846.723    692055.860   3460277.480
10 0 59940  67662.000000  0   -6285884.794    929376.250   2652108.523
10 0 59940  67782.000000  0   -6546938.661   1156011.152   1797228.439
10 0 59940  67902.000000  0   -6689686.562   1365965.622    910694.390
10 0 59940  68022.000000  0   -6712000.390   1553484.571      8123.051
10 0 59940  68142.000000  0   -6613978.434   1713194.221   -894593.689
10 0 59940  68262.000000  0   -6397932.639   1840235.626  -1781577.351
10 0 59940  68382.000000  0   -6068332.588   1930388.044  -2637249.792
10 0 59940  68502.000000  0   -5631706.130   1980179.105  -3446614.127
10 0 59940  68622.000000  0   -5096498.878   1986977.555  -4195521.280
10 0 59940  68742.000000  0   -4472898.554   1949067.204  -4870916.060
10 0 59940  68862.000000  0   -3772629.385   1865700.973  -5461059.301
10 0 59940  68982.000000  0   -3008722.705   1737134.370  -5955722.733
10 0 59940  69102.000000  0   -2195269.126   1564637.859  -6346356.104
10 0 59940  69222.000000  0   -1347155.037   1350488.145  -6626223.986
10 0 59940  69342.000000  0    -479790.908   1097938.601  -6790509.504
10 0 59940  69462.000000  0     391163.616    811169.938  -6836387.478
10 0 59940  69582.000000  0    1250074.428    495222.547  -6763068.613
10 0 59940  69702.000000  0    2081608.162    155909.662  -6571813.247
10 0 59940  69822.000000  0    2870999.721   -200286.711  -6265911.229
10 0 59940  69942.000000  0    3604310.543   -566335.360  -5850631.780
10 0 59940  70062.000000  0    4268672.242   -934789.905  -5333140.825
10 0 59940  70182.000000  0    4852513.990  -1297935.158  -4722389.769
10 0 59940  70302.000000  0    5345770.440  -1647944.541  -4028972.203
10 0 59940  70422.000000  0    5740064.043  -1977044.189  -3264950.088
10 0 59940  70542.000000  0    6028858.359  -2277681.137  -2443651.338
10 0 59940  70662.000000  0    6207577.828  -2542691.938  -1579440.972
10 0 59940  70782.000000  0    6273690.335  -2765467.153   -687470.147
10 0 59940  70902.000000  0    6226750.718  -2940107.893    216592.565
10 0 59940  71022.000000  0    6068402.782  -3061570.218   1116842.489
10 0 59940  71142.000000  0    5802340.023  -3125793.483   1997427.583
10 0 59940  71262.000000  0    5434222.460  -3129808.776   2842837.260
10 0 59940  71382.000000  0    4971554.889  -3071824.915   3638183.524
10 0 59940  71502.000000  0    4423528.621  -2951288.480   4369468.897
10 0 59940  71622.000000  0    3800833.541  -2768919.132   5023835.653
10 0 59940  71742.000000  0    3115441.385  -2526718.709   5589793.789
10 0 59940  71862.000000  0    2380367.348  -2227952.235   6057419.759
10 0 59940  71982.000000  0    1609417.157  -1877103.641   6418525.678
10 0 59940  72102.000000  0     816923.543  -1479807.022   6666796.966
10 0 59940  72222.000000  0      17477.113  -1042754.325   6797896.698
10 0 59940  72342.000000  0    -774342.597   -573581.150   6809536.088
10 0 59940  72462.000000  0   -1544231.898    -80733.210   6701511.341
10 0 59940  72582.000000  0   -2278420.224    426685.379   6475707.059
10 0 59940  72702.000000  0   -2963915.880    939079.566   6136065.764
10 0 59940  72822.000000  0   -3588736.951   1446543.716   5688523.785
10 0 59940  72942.000000  0   -4142124.224   1939052.308   5140914.015
10 0 59940  73062.000000  0   -4614732.638   2406658.207   4502835.315
10 0 59940  73182.000000  0   -4998796.196   2839694.629   3785488.299
10 0 59940  73302.000000  0   -5288262.158   3228975.757   3001481.297
10 0 59940  73422.000000  0   -5478893.001   3565992.197   2164609.741
10 0 59940  73542.000000  0   -5568333.549   3843097.721   1289611.422
10 0 59940  73662.000000  0   -5556140.073   4053680.807    391900.424
10 0 59940  73782.000000  0   -5443769.643   4192316.398   -512712.054
10 0 59940  73902.000000  0   -5234532.112   4254895.033  -1408304.653
10 0 59940  74022.000000  0   -4933504.386   4238725.940  -2279135.945
10 0 59940  74142.000000  0   -4547407.807   4142609.463  -3109929.565
10 0 59940  74262.000000  0   -4084454.246   3966878.595  -3886146.657
10 0 59940  74382.000000  0   -3554165.270   3713409.191  -4594240.504
10 0 59940  74502.000000  0   -2967169.720   3385599.790  -5221888.768
10 0 59940  74622.000000  0   -2334986.555   2988322.033  -5758199.680
10 0 59940  74742.000000  0   -1669796.117   2527843.958  -6193892.450
10 0 59940  74862.000000  0    -984203.614   2011725.897  -6521446.841
10 0 59940  74982.000000  0    -291001.996   1448693.641  -6735220.735
10 0 59940  75102.000000  0     397062.552    848490.649  -6831537.109
10 0 59940  75222.000000  0    1067518.688    221712.165  -6808741.058
10 0 59940  75342.000000  0    1708391.719   -420378.217  -6667225.808
10 0 59940  75462.000000  0    2308412.075  -1066046.150  -6409425.187
10 0 59940  75582.000000  0    2857209.474  -1703295.303  -6039776.750
10 0 59940  75702.000000  0    3345490.351  -2320084.479  -5564653.431
10 0 59940  75822.000000  0    3765197.175  -2904552.153  -4992266.215
10 0 59940  75942.000000  0    4109645.806  -3445245.017  -4332532.277
10 0 59940  76062.000000  0    4373635.838  -3931342.753  -3596912.861
10 0 59940  76182.000000  0    4553535.282  -4352876.982  -2798224.092
10 0 59940  76302.000000  0    4647336.456  -4700939.893  -1950419.557
10 0 59940  76422.000000  0    4654680.414  -4967877.089  -1068348.722
10 0 59940  76542.000000  0    4576847.746  -5147459.585   -167494.322
10 0 59940  76662.000000  0    4416715.813  -5235028.689    736304.988
10 0 59940  76782.000000  0    4178684.088  -5227611.187   1627140.920
10 0 59940  76902.000000  0    3868567.349  -5123999.878   2489325.321
10 0 59940  77022.000000  0    3493460.476  -4924798.802   3307674.095
10 0 59940  77142.000000  0    3061578.957  -4632431.984   4067781.899
10 0 59940  77262.000000  0    2582078.605  -4251114.455   4756280.194
10 0 59940  77382.000000  0    2064859.820  -3786787.474   5361074.116
10 0 59940  77502.000000  0    1520360.833  -3247020.141   5871553.904
10 0 59940  77622.000000  0     959344.249  -2640878.745   6278777.478
10 0 59940  77742.000000  0     392682.515  -1978768.819   6575620.813
10 0 59940  77862.000000  0    -168853.396  -1272252.717   6756895.743
10 0 59940  77982.000000  0    -714797.680   -533845.723   6819435.948
10 0 59940  78102.000000  0   -1235183.698    223206.959   6762148.846
10 0 59940  78222.000000  0   -1720725.387    985167.506   6586033.295
10 0 59940  78342.000000  0   -2162982.610   1738054.007   6294163.132
10 0 59940  78462.000000  0   -2554508.561   2467896.224   5891636.885
10 0 59940  78582.000000  0   -2888976.385   3160995.388   5385494.300
10 0 59940  78702.000000  0   -3161284.093   3804183.502   4784599.826
10 0 59940  78822.000000  0   -3367635.530   4385077.901   4099493.264
10 0 59940  78942.000000  0   -3505594.853   4892325.869   3342209.042
10 0 59940  79062.000000  0   -3574113.317   5315833.832   2526066.109
99
